NORAD_CAT_ID,OBJECT_NAME,OBJECT_TYPE,EPOCH,MEAN_MOTION,ECCENTRICITY,INCLINATION,RA_OF_ASC_NODE,ARG_OF_PERICENTER,MEAN_ANOMALY,BSTAR,MEAN_MOTION_DOT,MEAN_MOTION_DDOT,TLE_LINE0,TLE_LINE1,TLE_LINE2,SEMIMAJOR_AXIS,PERIOD,APOGEE,PERIGEE,DECAYED
50815.0,STARLINK-3234,PAYLOAD,2023-08-11 07:31:31,15.08835787,0.0001437,53.2167,75.1262,72.1691,287.9458,0.00013684,1.89e-05,0.0,0 STARLINK-3234,1 50815U 22001N   23223.31355466  .00001890  00000-0  13684-3 0  9992,2 50815  53.2167  75.1262 0001437  72.1691 287.9458 15.08835787 89562,6917.893,95.438,540.752,538.764,0.0
50815.0,STARLINK-3234,PAYLOAD,2023-08-12 20:05:22,15.08845536,9.96e-05,53.217,68.2844,76.3897,283.7206,0.00019963,2.891e-05,0.0,0 STARLINK-3234,1 50815U 22001N   23224.83706954  .00002891  00000-0  19963-3 0  9990,2 50815  53.2170  68.2844 0000996  76.3897 283.7206 15.08845536 89791,6917.863,95.437,540.417,539.039,0.0
50815.0,STARLINK-3234,PAYLOAD,2023-08-13 19:56:10,15.08838629,9.65e-05,53.2179,63.823,80.6166,279.4935,6.8771e-05,8.07e-06,0.0,0 STARLINK-3234,1 50815U 22001N   23225.83067350  .00000807  00000-0  68771-4 0  9998,2 50815  53.2179  63.8230 0000965  80.6166 279.4935 15.08838629 89946,6917.885,95.438,540.417,539.082,0.0
50815.0,STARLINK-3234,PAYLOAD,2023-08-14 22:57:43,15.08845811,0.0001003,53.2182,58.77,81.8433,278.2673,0.00015973,2.256e-05,0.0,0 STARLINK-3234,1 50815U 22001N   23226.95674787  .00002256  00000-0  15973-3 0  9995,2 50815  53.2182  58.7700 0001003  81.8433 278.2673 15.08845811 90117,6917.863,95.437,540.421,539.034,0.0
50815.0,STARLINK-3234,PAYLOAD,2023-08-15 05:19:15,15.08840974,0.0001028,53.218,57.5795,82.2822,277.8287,0.0001137,1.522e-05,0.0,0 STARLINK-3234,1 50815U 22001N   23227.22171246  .00001522  00000-0  11370-3 0  9990,2 50815  53.2180  57.5795 0001028  82.2822 277.8287 15.08840974 90155,6917.877,95.437,540.454,539.031,0.0
50815.0,STARLINK-3234,PAYLOAD,2023-08-16 14:42:22,15.08839697,0.0001455,53.2147,51.3377,98.3635,261.7522,4.2718e-05,3.92e-06,0.0,0 STARLINK-3234,1 50815U 22001N   23228.61275589  .00000392  00000-0  42718-4 0  9994,2 50815  53.2147  51.3377 0001455  98.3635 261.7522 15.08839697 90367,6917.881,95.438,540.753,538.74,0.0
50815.0,STARLINK-3234,PAYLOAD,2023-08-17 20:54:41,15.08844329,0.0001448,53.2168,45.687,94.4652,265.6505,0.00018335,2.632e-05,0.0,0 STARLINK-3234,1 50815U 22001N   23229.87131116  .00002632  00000-0  18335-3 0  9996,2 50815  53.2168  45.6870 0001448  94.4652 265.6505 15.08844329 90555,6917.867,95.437,540.734,538.73,0.0
50815.0,STARLINK-3234,PAYLOAD,2023-08-18 06:27:00,15.08841644,0.000138,53.2169,43.9036,83.303,276.8119,5.0866e-05,5.22e-06,0.0,0 STARLINK-3234,1 50815U 22001N   23230.26875585  .00000522  00000-0  50866-4 0  9998,2 50815  53.2169  43.9036 0001380  83.3030 276.8119 15.08841644 90612,6917.875,95.437,540.695,538.786,0.0
50815.0,STARLINK-3234,PAYLOAD,2023-08-18 17:34:43,15.08832513,0.0001154,53.2175,41.8216,82.5589,277.5534,6.7106e-05,7.8e-06,0.0,0 STARLINK-3234,1 50815U 22001N   23230.73244213  .00000780  00000-0  67106-4 0  9999,2 50815  53.2175  41.8216 0001154  82.5589 277.5534 15.08832513 90686,6917.903,95.438,540.567,538.97,0.0
50815.0,STARLINK-3234,PAYLOAD,2023-08-20 17:16:16,15.08844515,0.0001082,53.2181,32.9005,78.8603,281.2511,0.00019643,2.84e-05,0.0,0 STARLINK-3234,1 50815U 22001N   23232.71963544  .00002840  00000-0  19643-3 0  9995,2 50815  53.2181  32.9005 0001082  78.8603 281.2511 15.08844515 90980,6917.867,95.437,540.48,538.983,0.0
50815.0,STARLINK-3234,PAYLOAD,2023-08-21 10:45:31,15.0883242,5.16e-05,53.2187,29.6285,51.1002,309.0036,2.2352e-05,6.8e-07,0.0,0 STARLINK-3234,1 50815U 22001N   23233.44828445  .00000068  00000-0  22352-4 0  9998,2 50815  53.2187  29.6285 0000516  51.1002 309.0036 15.08832420 91093,6917.904,95.438,540.126,539.412,0.0
50815.0,STARLINK-3234,PAYLOAD,2023-08-24 11:53:15,15.08841684,0.0001656,53.2169,15.9486,120.2214,239.8942,5.393e-05,5.7e-06,0.0,0 STARLINK-3234,1 50815U 22001N   23236.49532178  .00000570  00000-0  53930-4 0  9995,2 50815  53.2169  15.9486 0001656 120.2214 239.8942 15.08841684 91552,6917.875,95.437,540.886,538.595,0.0
50815.0,STARLINK-3234,PAYLOAD,2023-08-25 13:19:25,15.08843992,0.0001173,53.2178,11.1902,94.8696,265.243,7.0754e-05,8.39e-06,0.0,0 STARLINK-3234,1 50815U 22001N   23237.55516141  .00000839  00000-0  70754-4 0  9996,2 50815  53.2178  11.1902 0001173  94.8696 265.2430 15.08843992 90443,6917.868,95.437,540.545,538.922,0.0
50815.0,STARLINK-3234,PAYLOAD,2023-08-25 18:05:35,15.08847096,0.0001162,53.2176,10.299,89.8478,270.2647,0.00011152,1.488e-05,0.0,0 STARLINK-3234,1 50815U 22001N   23237.75387967  .00001488  00000-0  11152-3 0  9997,2 50815  53.2176  10.2990 0001162  89.8478 270.2647 15.08847096 91747,6917.859,95.437,540.528,538.92,0.0
50815.0,STARLINK-3234,PAYLOAD,2023-08-26 08:24:04,15.08835681,0.0001155,53.2172,7.6238,89.3752,270.7372,4.8427e-05,4.83e-06,0.0,0 STARLINK-3234,1 50815U 22001N   23238.35004729  .00000483  00000-0  48427-4 0  9996,2 50815  53.2172   7.6238 0001155  89.3752 270.7372 15.08835681 91837,6917.894,95.438,540.558,538.96,0.0
50815.0,STARLINK-3234,PAYLOAD,2023-08-26 16:20:59,15.0884031,0.0001233,53.2165,6.1404,73.1304,286.9824,8.3932e-05,1.048e-05,0.0,0 STARLINK-3234,1 50815U 22001N   23238.68124567  .00001048  00000-0  83932-4 0  9993,2 50815  53.2165   6.1404 0001233  73.1304 286.9824 15.08840310 90610,6917.879,95.438,540.597,538.891,0.0
50815.0,STARLINK-3234,PAYLOAD,2023-08-27 17:47:09,15.08844353,0.0001117,53.2176,1.3784,85.8324,274.2796,0.00012595,1.717e-05,0.0,0 STARLINK-3234,1 50815U 22001N   23239.74108556  .00001717  00000-0  12595-3 0  9990,2 50815  53.2176   1.3784 0001117  85.8324 274.2796 15.08844353 92041,6917.867,95.437,540.505,538.959,0.0
50815.0,STARLINK-3234,PAYLOAD,2023-08-28 14:27:10,15.08844641,0.0001122,53.2178,357.5124,97.7889,262.3231,0.0001025,1.344e-05,0.0,0 STARLINK-3234,1 50815U 22001N   23240.60220619  .00001344  00000-0  10250-3 0  9994,2 50815  53.2178 357.5124 0001122  97.7889 262.3231 15.08844641 90906,6917.866,95.437,540.507,538.955,0.0
50815.0,STARLINK-3234,PAYLOAD,2023-08-29 14:17:57,15.08845863,0.0001186,53.2172,353.0528,90.1366,269.9762,0.00012696,1.734e-05,0.0,0 STARLINK-3234,1 50815U 22001N   23241.59580694  .00001734  00000-0  12696-3 0  9994,2 50815  53.2172 353.0528 0001186  90.1366 269.9762 15.08845863 91052,6917.862,95.437,540.548,538.907,0.0
50815.0,STARLINK-3234,PAYLOAD,2023-08-30 14:08:44,15.08843738,0.0001149,53.2174,348.5933,86.8042,273.3082,0.00010061,1.314e-05,0.0,0 STARLINK-3234,1 50815U 22001N   23242.58940722  .00001314  00000-0  10061-3 0  9994,2 50815  53.2174 348.5933 0001149  86.8042 273.3082 15.08843738 92475,6917.869,95.437,540.529,538.939,0.0
50815.0,STARLINK-3234,PAYLOAD,2023-08-31 09:13:23,15.0883571,0.0001234,53.2174,345.0249,85.6498,274.4635,-6.9355e-06,-3.98e-06,0.0,0 STARLINK-3234,1 50815U 22001N   23243.38429453 -.00000398  00000-0 -69355-5 0  9991,2 50815  53.2174 345.0249 0001234  85.6498 274.4635 15.08835710 92594,6917.894,95.438,540.612,538.905,0.0
50815.0,STARLINK-3234,PAYLOAD,2023-09-01 09:04:09,15.08843777,0.0001233,53.2162,340.566,96.0423,264.071,5.1785e-05,5.36e-06,0.0,0 STARLINK-3234,1 50815U 22001N   23244.37789003  .00000536  00000-0  51785-4 0  9990,2 50815  53.2162 340.5660 0001233  96.0423 264.0710 15.08843777 92749,6917.869,95.437,540.587,538.881,0.0
50815.0,STARLINK-3234,PAYLOAD,2023-09-01 15:25:41,15.08850662,0.0001233,53.2168,339.3759,83.6931,276.4202,0.00013058,1.792e-05,0.0,0 STARLINK-3234,1 50815U 22001N   23244.64284389  .00001792  00000-0  13058-3 0  9992,2 50815  53.2168 339.3759 0001233  83.6931 276.4202 15.08850662 92784,6917.848,95.437,540.566,538.86,0.0
50815.0,STARLINK-3234,PAYLOAD,2023-09-01 23:22:37,15.08844401,0.0001253,53.217,337.8917,86.0243,274.0892,8.9691e-05,1.14e-05,0.0,0 STARLINK-3234,1 50815U 22001N   23244.97404809  .00001140  00000-0  89691-4 0  9993,2 50815  53.2170 337.8917 0001253  86.0243 274.0892 15.08844401 92830,6917.867,95.437,540.599,538.865,0.0
50815.0,STARLINK-3234,PAYLOAD,2023-09-02 07:19:34,15.0883167,0.0001179,53.2163,336.4022,87.9514,272.1613,6.9221e-05,8.14e-06,0.0,0 STARLINK-3234,1 50815U 22001N   23245.30525678  .00000814  00000-0  69221-4 0  9993,2 50815  53.2163 336.4022 0001179  87.9514 272.1613 15.08831670 92881,6917.906,95.438,540.586,538.955,0.0
50815.0,STARLINK-3234,PAYLOAD,2023-09-02 12:05:43,15.08840778,0.0001263,53.2182,335.51,84.1792,275.9344,9.0307e-05,1.15e-05,0.0,0 STARLINK-3234,1 50815U 22001N   23245.50397098  .00001150  00000-0  90307-4 0  9991,2 50815  53.2182 335.5100 0001263  84.1792 275.9344 15.08840778 91644,6917.878,95.438,540.617,538.869,0.0
50815.0,STARLINK-3234,PAYLOAD,2023-09-02 13:41:06,15.08842164,0.0001217,53.2165,335.2113,102.3676,257.7453,0.0001379,1.908e-05,0.0,0 STARLINK-3234,1 50815U 22001N   23245.57020857  .00001908  00000-0  13790-3 0  9995,2 50815  53.2165 335.2113 0001217 102.3676 257.7453 15.08842164 92921,6917.874,95.437,540.581,538.897,0.0
50815.0,STARLINK-3234,PAYLOAD,2023-09-02 23:13:24,15.08854085,0.0001196,53.2176,333.4279,80.7058,279.4069,8.4651e-05,1.06e-05,0.0,0 STARLINK-3234,1 50815U 22001N   23245.96764400  .00001060  00000-0  84651-4 0  9991,2 50815  53.2176 333.4279 0001196  80.7058 279.4069 15.08854085 92980,6917.837,95.437,540.53,538.875,0.0
50815.0,STARLINK-3234,PAYLOAD,2023-09-03 11:56:29,15.0885401,0.0001219,53.2164,331.0498,78.7793,281.3336,0.0001258,1.716e-05,0.0,0 STARLINK-3234,1 50815U 22001N   23246.49755976  .00001716  00000-0  12580-3 0  9997,2 50815  53.2164 331.0498 0001219  78.7793 281.3336 15.08854010 91798,6917.838,95.437,540.546,538.859,0.0
50815.0,STARLINK-3234,PAYLOAD,2023-09-03 23:04:11,15.08843085,0.0001853,53.2176,328.9678,82.4804,277.6399,4.2043e-05,3.81e-06,0.0,0 STARLINK-3234,1 50815U 22001N   23246.96124608  .00000381  00000-0  42043-4 0  9996,2 50815  53.2176 328.9678 0001853  82.4804 277.6399 15.08843085 93132,6917.871,95.437,541.018,538.454,0.0
